COMMENT,ORIGINATOR,NORAD_CAT_ID,OBJECT_NAME,OBJECT_TYPE,CLASSIFICATION_TYPE,INTLDES,EPOCH,EPOCH_MICROSECONDS,MEAN_MOTION,ECCENTRICITY,INCLINATION,RA_OF_ASC_NODE,ARG_OF_PERICENTER,MEAN_ANOMALY,EPHEMERIS_TYPE,ELEMENT_SET_NO,REV_AT_EPOCH,BSTAR,MEAN_MOTION_DOT,MEAN_MOTION_DDOT,FILE,TLE_LINE0,TLE_LINE1,TLE_LINE2,OBJECT_ID,OBJECT_NUMBER,SEMIMAJOR_AXIS,PERIOD,APOGEE,PERIGEE
"GENERATED VIA SPACETRACK.ORG API","JSPOC","22689","COSMOS 2254","PAYLOAD","U","93038C","2016-01-09 20:08:37","264416","12.64826732","0.0011514","82.5825","126.5793","353.4586","123.2899","0","999","4029","1.9461e-05","1.4e-07","0","1978726","0 COSMOS 2254","1 22689U 93038C   16009.83932019 +.00000014 +00000-0 +19461-4 0  9991","2 22689 082.5825 126.5793 0011514 353.4586 123.2899 12.64826732040298","1993-038C","22689","7781.222","113.849","1412.046","1394.127"
"GENERATED VIA SPACETRACK.ORG API","JSPOC","39359","CZ-4B R/B","ROCKET BODY","U","13057B","2016-01-09 20:08:42","769824","15.15882975","0.0086321","74.9924","252.6862","148.666","211.9727","0","999","12194","4.1061e-05","8.24e-06","0","1978726","0 CZ-4B R/B","1 39359U 13057B   16009.83938391 +.00000824 +00000-0 +41061-4 0  9995","2 39359 074.9924 252.6862 0086321 148.6660 211.9727 15.15882975121945","2013-057B","39359","6896.436","94.994","577.831","458.770"
"GENERATED VIA SPACETRACK.ORG API","JSPOC","39186","RESURS P1","PAYLOAD","U","13030A","2016-01-09 20:08:50","557056","15.32356169","0.0016605","97.176","78.0805","117.1297","334.7087","0","999","14228","5.2433e-05","1.569e-05","0","1978301","0 RESURS P1","1 39186U 13030A   16009.83947404  .00001569  00000-0  52433-4 0  9991","2 39186  97.1760  78.0805 0016605 117.1297 334.7087 15.32356169142283","2013-030A","39186","6846.921","93.972","480.156","457.417"
"GENERATED VIA SPACETRACK.ORG API","JSPOC","40379","GRIFEX","PAYLOAD","U","15003D","2016-01-09 20:08:52","625472","15.09153994","0.0151896","99.0936","86.3085","297.7336","60.8552","0","999","5168","0.00017565","3.549e-05","0","1978249","0 GRIFEX","1 40379U 15003D   16009.83949798  .00003549  00000-0  17565-3 0  9993","2 40379  99.0936  86.3085 0151896 297.7336  60.8552 15.09153994 51680","2015-003D","40379","6916.920","95.417","643.851","433.720"
"GENERATED VIA SPACETRACK.ORG API","JSPOC","13127","COSMOS 1349","PAYLOAD","U","82030A","2016-01-09 20:09:00","335808","13.73761029","0.0030481","82.9311","105.2447","202.9578","297.0675","0","999","69223","3.3563e-05","4.7e-07","0","1978280","0 COSMOS 1349","1 13127U 82030A   16009.83958722  .00000047  00000-0  33563-4 0  9992","2 13127  82.9311 105.2447 0030481 202.9578 297.0675 13.73761029692239","1982-030A","13127","7364.236","104.821","1008.548","963.654"
"GENERATED VIA SPACETRACK.ORG API","JSPOC","13766","COSMOS 1434","PAYLOAD","U","83002F","2016-01-09 20:09:21","453696","12.53766682","0.0024083","74.0229","242.3666","243.072","194.4145","0","999","50937","0.00016968","1.1e-07","0","1978726","0 COSMOS 1434","1 13766U 83002F   16009.83983164 +.00000011 +00000-0 +16968-3 0  9999","2 13766 074.0229 242.3666 0024083 243.0720 194.4145 12.53766682509371","1983-002F","13766","7826.916","114.853","1467.630","1429.931"
"GENERATED VIA SPACETRACK.ORG API","JSPOC","26720","BSAT-2A","PAYLOAD","U","01011B","2016-01-09 20:09:32","692608","0.99181334","0.0006122","2.9594","71.0816","158.3042","349.3169","0","999","5416","0","-2.21e-06","0","1978266","0 BSAT-2A","1 26720U 01011B   16009.83996172 -.00000221  00000-0  00000+0 0  9996","2 26720   2.9594  71.0816 0006122 158.3042 349.3169  0.99181334 54164","2001-011B","26720","42473.222","1451.886","36121.089","36069.085"
"GENERATED VIA SPACETRACK.ORG API","JSPOC","13648","COSMOS 1420","PAYLOAD","U","82109A","2016-01-09 20:09:36","932256","14.33723703","0.0021313","73.9955","334.3146","249.0609","124.9073","0","999","73352","1.9922e-05","2.9e-07","0","1978259","0 COSMOS 1420","1 13648U 82109A   16009.84001079  .00000029  00000-0  19922-4 0  9995","2 13648  73.9955 334.3146 0021313 249.0609 124.9073 14.33723703733525","1982-109A","13648","7157.447","100.437","794.567","764.058"
"GENERATED VIA SPACETRACK.ORG API","JSPOC","39203","CZ-2C R/B","ROCKET BODY","U","13035B","2016-01-09 20:09:36","164160","14.54573994","0.005118","98.2703","160.7384","348.6838","11.3204","0","999","13201","2.7432e-05","7.1e-07","0","1978316","0 CZ-2C R/B","1 39203U 13035B   16009.84000190  .00000071  00000-0  27432-4 0  9997","2 39203  98.2703 160.7384 0051180 348.6838  11.3204 14.54573994132011","2013-035B","39203","7088.885","98.998","747.031","674.469"
"GENERATED VIA SPACETRACK.ORG API","JSPOC","21397","OKEAN 3","PAYLOAD","U","91039A","2016-01-09 20:09:37","505952","14.92009781","0.0017746","82.5232","276.3209","185.6407","174.4615","0","999","33158","6.0481e-05","6.4e-06","0","1978227","0 OKEAN 3","1 21397U 91039A   16009.84001743  .00000640  00000-0  60481-4 0  9990","2 21397  82.5232 276.3209 0017746 185.6407 174.4615 14.92009781331580","1991-039A","21397","6969.806","96.514","604.040","579.302"
"GENERATED VIA SPACETRACK.ORG API","JSPOC","27374","IRIDIUM 94","PAYLOAD","U","02005C","2016-01-09 20:09:48","74400","14.3421946","0.0001712","86.3984","114.9525","64.489","50.3715","0","999","74076","8.306e-05","2.52e-06","0","1978726","0 IRIDIUM 94","1 27374U 02005C   16009.84013975 +.00000252 +00000-0 +83060-4 0  9993","2 27374 086.3984 114.9525 0001712 064.4890 050.3715 14.34219460740761","2002-005C","27374","7155.798","100.403","778.888","776.438"
"GENERATED VIA SPACETRACK.ORG API","JSPOC","31128","LIBERTAD 1","PAYLOAD","U","07012M","2016-01-09 20:09:59","366880","14.55517272","0.009813","98.013","331.0802","33.9601","326.7827","0","999","46314","0.00011368","4.8e-06","0","1978301","0 LIBERTAD 1","1 31128U 07012M   16009.84027045  .00000480  00000-0  11368-3 0  9995","2 31128  98.0130 331.0802 0098130  33.9601 326.7827 14.55517272463140","2007-012M","31128","7085.822","98.933","777.220","638.154"
"GENERATED VIA SPACETRACK.ORG API","JSPOC","39421","UNISAT 5","PAYLOAD","U","13066F","2016-01-09 20:10:15","195360","14.86855807","0.0031674","97.7155","78.034","165.911","194.2984","0","999","11572","0.00010244","8.68e-06","0","1978247","0 UNISAT 5","1 39421U 13066F   16009.84045365  .00000868  00000-0  10244-3 0  9992","2 39421  97.7155  78.0340 0031674 165.9110 194.2984 14.86855807115726","2013-066F","39421","6985.903","96.848","629.896","585.641"
"GENERATED VIA SPACETRACK.ORG API","JSPOC","7373","SL-6 R/B(2)","ROCKET BODY","U","74026E","2016-01-09 20:10:21","829152","2.06531629","0.7317939","62.3603","108.4585","274.0768","13.1997","0","999","30820","-0.00099767","-7.26e-06","0","1978726","0 SL-6 R/B(2)","1  7373U 74026E   16009.84053043 -.00000726 +00000-0 -99767-3 0  9990","2  7373 062.3603 108.4585 7317939 274.0768 013.1997 02.06531629308203","1974-026E","7373","26046.185","697.229","38728.489","607.610"
"GENERATED VIA SPACETRACK.ORG API","JSPOC","38711","MKA-FKI 1","PAYLOAD","U","12039E","2016-01-09 20:10:43","881888","14.24108493","0.0011509","99.0184","323.9577","324.4554","35.5858","0","999","18022","6.149e-05","9.5e-07","0","1978271","0 MKA-FKI 1","1 38711U 12039E   16009.84078567  .00000095  00000-0  61490-4 0  9994","2 38711  99.0184 323.9577 0011509 324.4554  35.5858 14.24108493180225","2012-039E","38711","7189.628","101.115","819.768","803.219"
"GENERATED VIA SPACETRACK.ORG API","JSPOC","5707","SL-8 R/B","ROCKET BODY","U","71114B","2016-01-09 20:10:46","429824","14.3866202","0.0024594","74.0286","333.7595","168.6098","191.5618","0","999","30738","2.3684e-05","4.6e-07","0","1978245","0 SL-8 R/B","1 05707U 71114B   16009.84081516  .00000046  00000-0  23684-4 0  9999","2 05707  74.0286 333.7595 0024594 168.6098 191.5618 14.38662020307389","1971-114B","5707","7141.059","100.093","780.487","745.361"
"GENERATED VIA SPACETRACK.ORG API","JSPOC","22913","ARIANE 44LP+ R/B","ROCKET BODY","U","93073C","2016-01-09 20:11:01","778784","7.00346366","0.4262467","6.7244","204.4588","83.3655","322.0112","0","999","38226","0.001575","0.00041797","0","1978247","0 ARIANE 44LP+ R/B","1 22913U 93073C   16009.84099281  .00041797  00000-0  15750-2 0  9994","2 22913   6.7244 204.4588 4262467  83.3655 322.0112  7.00346366382261","1993-073C","22913","11539.666","205.612","10080.276","242.786"
"GENERATED VIA SPACETRACK.ORG API","JSPOC","31129","CP3","PAYLOAD","U","07012N","2016-01-09 20:11:09","616128","14.56115736","0.0096966","98.0101","331.993","30.5232","330.156","0","999","46315","0.00012907","5.59e-06","0","1978726","0 CP3","1 31129U 07012N   16009.84108352 +.00000559 +00000-0 +12907-3 0  9994","2 31129 098.0101 331.9930 0096966 030.5232 330.1560 14.56115736463152","2007-012N","31129","7083.880","98.893","774.435","637.056"
"GENERATED VIA SPACETRACK.ORG API","JSPOC","14084","COSMOS 1464","PAYLOAD","U","83048A","2016-01-09 20:11:12","157152","13.74409242","0.0029562","82.9465","145.1785","211.4138","260.9762","0","999","63657","1.7988e-05","3.2e-07","0","1978238","0 COSMOS 1464","1 14084U 83048A   16009.84111293  .00000032  00000-0  17988-4 0  9997","2 14084  82.9465 145.1785 0029562 211.4138 260.9762 13.74409242636573","1983-048A","14084","7361.920","104.772","1005.548","962.022"
"GENERATED VIA SPACETRACK.ORG API","JSPOC","16799","SL-8 R/B","ROCKET BODY","U","86047B","2016-01-09 20:11:33","103104","13.77251985","0.0065366","82.9216","110.4516","302.0358","177.6316","0","999","41907","4.5636e-05","6e-07","0","1978199","0 SL-8 R/B","1 16799U 86047B   16009.84135536  .00000060  00000-0  45636-4 0  9992","2 16799  82.9216 110.4516 0065366 302.0358 177.6316 13.77251985419077","1986-047B","16799","7351.786","104.556","1021.707","925.596"
